[{"CCSDS_OMM_VERS":"3.0","COMMENT":"GENERATED VIA SPACE-TRACK.ORG API","CREATION_DATE":"2026-05-16T10:38:26","ORIGINATOR":"18 SPCS","OBJECT_NAME":"COSMOS 2584(GLONASS)","OBJECT_ID":"2025-042A","CENTER_NAME":"EARTH","REF_FRAME":"TEME","TIME_SYSTEM":"UTC","MEAN_ELEMENT_THEORY":"SGP4","EPOCH":"2026-05-15T07:00:47.839104","MEAN_MOTION":"2.13103698","ECCENTRICITY":"0.00062644","INCLINATION":"65.0668","RA_OF_ASC_NODE":"73.9199","ARG_OF_PERICENTER":"234.2965","MEAN_ANOMALY":"125.6239","EPHEMERIS_TYPE":"0","CLASSIFICATION_TYPE":"U","NORAD_CAT_ID":"63130","ELEMENT_SET_NO":"999","REV_AT_EPOCH":"934","BSTAR":"0.00000000000000","MEAN_MOTION_DOT":"-0.00000013","MEAN_MOTION_DDOT":"0.0000000000000","SEMIMAJOR_AXIS":"25507.889","PERIOD":"675.727","APOAPSIS":"19145.733","PERIAPSIS":"19113.775","OBJECT_TYPE":"PAYLOAD","RCS_SIZE":"LARGE","COUNTRY_CODE":"CIS","LAUNCH_DATE":"2025-03-02","SITE":"PKMTR","DECAY_DATE":null,"FILE":"5196540","GP_ID":"323451049","TLE_LINE0":"0 COSMOS 2584(GLONASS)","TLE_LINE1":"1 63130U 25042A   26135.29222036 -.00000013  00000-0  00000-0 0  9994","TLE_LINE2":"2 63130  65.0668  73.9199 0006264 234.2965 125.6239  2.13103698  9340"},{"CCSDS_OMM_VERS":"3.0","COMMENT":"GENERATED VIA SPACE-TRACK.ORG API","CREATION_DATE":"2026-05-16T17:43:08","ORIGINATOR":"18 SPCS","OBJECT_NAME":"COSMOS 2584(GLONASS)","OBJECT_ID":"2025-042A","CENTER_NAME":"EARTH","REF_FRAME":"TEME","TIME_SYSTEM":"UTC","MEAN_ELEMENT_THEORY":"SGP4","EPOCH":"2026-05-16T05:32:15.530784","MEAN_MOTION":"2.13103681","ECCENTRICITY":"0.00062398","INCLINATION":"65.0673","RA_OF_ASC_NODE":"73.8879","ARG_OF_PERICENTER":"234.0729","MEAN_ANOMALY":"125.8480","EPHEMERIS_TYPE":"0","CLASSIFICATION_TYPE":"U","NORAD_CAT_ID":"63130","ELEMENT_SET_NO":"999","REV_AT_EPOCH":"936","BSTAR":"0.00000000000000","MEAN_MOTION_DOT":"-0.00000015","MEAN_MOTION_DDOT":"0.0000000000000","SEMIMAJOR_AXIS":"25507.890","PERIOD":"675.727","APOAPSIS":"19145.672","PERIAPSIS":"19113.839","OBJECT_TYPE":"PAYLOAD","RCS_SIZE":"LARGE","COUNTRY_CODE":"CIS","LAUNCH_DATE":"2025-03-02","SITE":"PKMTR","DECAY_DATE":null,"FILE":"5196581","GP_ID":"323484748","TLE_LINE0":"0 COSMOS 2584(GLONASS)","TLE_LINE1":"1 63130U 25042A   26136.23073531 -.00000015  00000-0  00000-0 0  9995","TLE_LINE2":"2 63130  65.0673  73.8879 0006240 234.0729 125.8480  2.13103681  9364"},{"CCSDS_OMM_VERS":"3.0","COMMENT":"GENERATED VIA SPACE-TRACK.ORG API","CREATION_DATE":"2026-05-16T19:56:29","ORIGINATOR":"18 SPCS","OBJECT_NAME":"COSMOS 2584(GLONASS)","OBJECT_ID":"2025-042A","CENTER_NAME":"EARTH","REF_FRAME":"TEME","TIME_SYSTEM":"UTC","MEAN_ELEMENT_THEORY":"SGP4","EPOCH":"2026-05-16T05:32:15.530784","MEAN_MOTION":"2.13103681","ECCENTRICITY":"0.00062400","INCLINATION":"65.0673","RA_OF_ASC_NODE":"73.8879","ARG_OF_PERICENTER":"234.0729","MEAN_ANOMALY":"125.8480","EPHEMERIS_TYPE":"0","CLASSIFICATION_TYPE":"U","NORAD_CAT_ID":"63130","ELEMENT_SET_NO":"999","REV_AT_EPOCH":"936","BSTAR":"0.00000000000000","MEAN_MOTION_DOT":"-0.00000015","MEAN_MOTION_DDOT":"0.0000000000000","SEMIMAJOR_AXIS":"25507.890","PERIOD":"675.727","APOAPSIS":"19145.672","PERIAPSIS":"19113.838","OBJECT_TYPE":"PAYLOAD","RCS_SIZE":"LARGE","COUNTRY_CODE":"CIS","LAUNCH_DATE":"2025-03-02","SITE":"PKMTR","DECAY_DATE":null,"FILE":"5196958","GP_ID":"323500573","TLE_LINE0":"0 COSMOS 2584(GLONASS)","TLE_LINE1":"1 63130U 25042A   26136.23073531 -.00000015  00000-0  00000+0 0  9994","TLE_LINE2":"2 63130  65.0673  73.8879 0006240 234.0729 125.8480  2.13103681  9364"},{"CCSDS_OMM_VERS":"3.0","COMMENT":"GENERATED VIA SPACE-TRACK.ORG API","CREATION_DATE":"2026-05-18T10:14:28","ORIGINATOR":"18 SPCS","OBJECT_NAME":"COSMOS 2584(GLONASS)","OBJECT_ID":"2025-042A","CENTER_NAME":"EARTH","REF_FRAME":"TEME","TIME_SYSTEM":"UTC","MEAN_ELEMENT_THEORY":"SGP4","EPOCH":"2026-05-17T15:19:27.321024","MEAN_MOTION":"2.13103688","ECCENTRICITY":"0.00062055","INCLINATION":"65.0681","RA_OF_ASC_NODE":"73.8401","ARG_OF_PERICENTER":"233.7243","MEAN_ANOMALY":"126.2004","EPHEMERIS_TYPE":"0","CLASSIFICATION_TYPE":"U","NORAD_CAT_ID":"63130","ELEMENT_SET_NO":"999","REV_AT_EPOCH":"939","BSTAR":"0.00000000000000","MEAN_MOTION_DOT":"-0.00000013","MEAN_MOTION_DDOT":"0.0000000000000","SEMIMAJOR_AXIS":"25507.890","PERIOD":"675.727","APOAPSIS":"19145.584","PERIAPSIS":"19113.926","OBJECT_TYPE":"PAYLOAD","RCS_SIZE":"LARGE","COUNTRY_CODE":"CIS","LAUNCH_DATE":"2025-03-02","SITE":"PKMTR","DECAY_DATE":null,"FILE":"5201404","GP_ID":"323702903","TLE_LINE0":"0 COSMOS 2584(GLONASS)","TLE_LINE1":"1 63130U 25042A   26137.63851066 -.00000013  00000-0  00000-0 0  9995","TLE_LINE2":"2 63130  65.0681  73.8401 0006205 233.7243 126.2004  2.13103688  9399"},{"CCSDS_OMM_VERS":"3.0","COMMENT":"GENERATED VIA SPACE-TRACK.ORG API","CREATION_DATE":"2026-05-17T23:06:31","ORIGINATOR":"18 SPCS","OBJECT_NAME":"COSMOS 2584(GLONASS)","OBJECT_ID":"2025-042A","CENTER_NAME":"EARTH","REF_FRAME":"TEME","TIME_SYSTEM":"UTC","MEAN_ELEMENT_THEORY":"SGP4","EPOCH":"2026-05-17T15:19:27.321024","MEAN_MOTION":"2.13103688","ECCENTRICITY":"0.00062050","INCLINATION":"65.0681","RA_OF_ASC_NODE":"73.8401","ARG_OF_PERICENTER":"233.7243","MEAN_ANOMALY":"126.2004","EPHEMERIS_TYPE":"0","CLASSIFICATION_TYPE":"U","NORAD_CAT_ID":"63130","ELEMENT_SET_NO":"999","REV_AT_EPOCH":"939","BSTAR":"0.00000000000000","MEAN_MOTION_DOT":"-0.00000013","MEAN_MOTION_DDOT":"0.0000000000000","SEMIMAJOR_AXIS":"25507.890","PERIOD":"675.727","APOAPSIS":"19145.582","PERIAPSIS":"19113.927","OBJECT_TYPE":"PAYLOAD","RCS_SIZE":"LARGE","COUNTRY_CODE":"CIS","LAUNCH_DATE":"2025-03-02","SITE":"PKMTR","DECAY_DATE":null,"FILE":"5200489","GP_ID":"323652768","TLE_LINE0":"0 COSMOS 2584(GLONASS)","TLE_LINE1":"1 63130U 25042A   26137.63851066 -.00000013  00000-0  00000+0 0  9994","TLE_LINE2":"2 63130  65.0681  73.8401 0006205 233.7243 126.2004  2.13103688  9399"},{"CCSDS_OMM_VERS":"3.0","COMMENT":"GENERATED VIA SPACE-TRACK.ORG API","CREATION_DATE":"2026-05-18T07:56:32","ORIGINATOR":"18 SPCS","OBJECT_NAME":"COSMOS 2584(GLONASS)","OBJECT_ID":"2025-042A","CENTER_NAME":"EARTH","REF_FRAME":"TEME","TIME_SYSTEM":"UTC","MEAN_ELEMENT_THEORY":"SGP4","EPOCH":"2026-05-17T15:19:27.321024","MEAN_MOTION":"2.13103688","ECCENTRICITY":"0.00062050","INCLINATION":"65.0681","RA_OF_ASC_NODE":"73.8401","ARG_OF_PERICENTER":"233.7243","MEAN_ANOMALY":"126.2004","EPHEMERIS_TYPE":"0","CLASSIFICATION_TYPE":"U","NORAD_CAT_ID":"63130","ELEMENT_SET_NO":"999","REV_AT_EPOCH":"939","BSTAR":"0.00000000000000","MEAN_MOTION_DOT":"-0.00000013","MEAN_MOTION_DDOT":"0.0000000000000","SEMIMAJOR_AXIS":"25507.890","PERIOD":"675.727","APOAPSIS":"19145.582","PERIAPSIS":"19113.927","OBJECT_TYPE":"PAYLOAD","RCS_SIZE":"LARGE","COUNTRY_CODE":"CIS","LAUNCH_DATE":"2025-03-02","SITE":"PKMTR","DECAY_DATE":null,"FILE":"5201370","GP_ID":"323674121","TLE_LINE0":"0 COSMOS 2584(GLONASS)","TLE_LINE1":"1 63130U 25042A   26137.63851066 -.00000013  00000-0  00000+0 0  9994","TLE_LINE2":"2 63130  65.0681  73.8401 0006205 233.7243 126.2004  2.13103688  9399"},{"CCSDS_OMM_VERS":"3.0","COMMENT":"GENERATED VIA SPACE-TRACK.ORG API","CREATION_DATE":"2026-05-19T02:42:52","ORIGINATOR":"18 SPCS","OBJECT_NAME":"COSMOS 2584(GLONASS)","OBJECT_ID":"2025-042A","CENTER_NAME":"EARTH","REF_FRAME":"TEME","TIME_SYSTEM":"UTC","MEAN_ELEMENT_THEORY":"SGP4","EPOCH":"2026-05-18T02:35:11.309856","MEAN_MOTION":"2.13103695","ECCENTRICITY":"0.00061946","INCLINATION":"65.0684","RA_OF_ASC_NODE":"73.8242","ARG_OF_PERICENTER":"233.6526","MEAN_ANOMALY":"126.2739","EPHEMERIS_TYPE":"0","CLASSIFICATION_TYPE":"U","NORAD_CAT_ID":"63130","ELEMENT_SET_NO":"999","REV_AT_EPOCH":"940","BSTAR":"0.00000000000000","MEAN_MOTION_DOT":"-0.00000012","MEAN_MOTION_DDOT":"0.0000000000000","SEMIMAJOR_AXIS":"25507.889","PERIOD":"675.727","APOAPSIS":"19145.555","PERIAPSIS":"19113.953","OBJECT_TYPE":"PAYLOAD","RCS_SIZE":"LARGE","COUNTRY_CODE":"CIS","LAUNCH_DATE":"2025-03-02","SITE":"PKMTR","DECAY_DATE":null,"FILE":"5203002","GP_ID":"323772622","TLE_LINE0":"0 COSMOS 2584(GLONASS)","TLE_LINE1":"1 63130U 25042A   26138.10776979 -.00000012  00000-0  00000-0 0  9996","TLE_LINE2":"2 63130  65.0684  73.8242 0006195 233.6526 126.2739  2.13103695  9401"},{"CCSDS_OMM_VERS":"3.0","COMMENT":"GENERATED VIA SPACE-TRACK.ORG API","CREATION_DATE":"2026-05-18T15:16:53","ORIGINATOR":"18 SPCS","OBJECT_NAME":"COSMOS 2584(GLONASS)","OBJECT_ID":"2025-042A","CENTER_NAME":"EARTH","REF_FRAME":"TEME","TIME_SYSTEM":"UTC","MEAN_ELEMENT_THEORY":"SGP4","EPOCH":"2026-05-18T02:35:11.309856","MEAN_MOTION":"2.13103695","ECCENTRICITY":"0.00061950","INCLINATION":"65.0684","RA_OF_ASC_NODE":"73.8242","ARG_OF_PERICENTER":"233.6526","MEAN_ANOMALY":"126.2739","EPHEMERIS_TYPE":"0","CLASSIFICATION_TYPE":"U","NORAD_CAT_ID":"63130","ELEMENT_SET_NO":"999","REV_AT_EPOCH":"940","BSTAR":"0.00000000000000","MEAN_MOTION_DOT":"-0.00000012","MEAN_MOTION_DDOT":"0.0000000000000","SEMIMAJOR_AXIS":"25507.889","PERIOD":"675.727","APOAPSIS":"19145.556","PERIAPSIS":"19113.952","OBJECT_TYPE":"PAYLOAD","RCS_SIZE":"LARGE","COUNTRY_CODE":"CIS","LAUNCH_DATE":"2025-03-02","SITE":"PKMTR","DECAY_DATE":null,"FILE":"5202215","GP_ID":"323727378","TLE_LINE0":"0 COSMOS 2584(GLONASS)","TLE_LINE1":"1 63130U 25042A   26138.10776979 -.00000012  00000-0  00000+0 0  9995","TLE_LINE2":"2 63130  65.0684  73.8242 0006195 233.6526 126.2739  2.13103695  9401"}]